STARLINK-37017          
1 68108U 26044H   26086.68639117  .00116624  00000+0  77202-3 0  9992
2 68108  97.2841  47.7220 0001829 112.1149 248.0310 15.75192879  4317
STARLINK-36833          
1 68109U 26044J   26086.87555777  .00118124  00000+0  78056-3 0  9998
2 68109  97.2844  47.9232 0001929 105.2845 254.8633 15.75229372  4348
STARLINK-36830          
1 68110U 26044K   26086.81273689  .00107471  00000+0  71147-3 0  9990
2 68110  97.2848  47.8561 0001583  89.4089 270.7357 15.75219121  4337
STARLINK-36791          
1 68111U 26044L   26086.87414605  .00148601  00000+0  97777-3 0  9999
2 68111  97.2843  47.9261 0001749  94.4238 265.7227 15.75240296  4345
STARLINK-36893          
1 68112U 26044M   26086.87309021  .00117095  00000+0  77443-3 0  9996
2 68112  97.2843  47.9262 0001381  98.5523 261.5898 15.75213216  4341
STARLINK-36937          
1 68113U 26044N   26086.87203070  .00151979  00000+0  99997-3 0  9991
2 68113  97.2844  47.9280 0001385  77.2864 282.8556 15.75231544  4340
STARLINK-36229          
1 68114U 26044P   26086.87238179  .00152208  00000+0  10010-2 0  9994
2 68114  97.2844  47.9263 0002010 110.3527 249.7954 15.75241714  4347
STARLINK-36392          
1 68115U 26044Q   26086.87097299  .00156251  00000+0  10276-2 0  9997
2 68115  97.2841  47.9291 0001135  80.5405 279.5988 15.75230704  4341
STARLINK-36805          
1 68116U 26044R   26086.87061778  .00108821  00000+0  72026-3 0  9993
2 68116  97.2843  47.9294 0001009 102.8283 257.3095 15.75220080  4348
STARLINK-36844          
1 68117U 26044S   26086.86920718  .00129633  00000+0  85557-3 0  9998
2 68117  97.2842  47.9314 0001215  81.4053 278.7350 15.75224763  4340
STARLINK-36789          
1 68118U 26044T   26086.86885112  .00214648  00000+0  13986-2 0  9994
2 68118  97.2841  47.9317 0001940 103.7200 256.4281 15.75280704  4343
STARLINK-36850          
1 68119U 26044U   26086.86850222  .00102149  00000+0  67696-3 0  9999
2 68119  97.2843  47.9323 0001289  75.8138 284.3270 15.75210625  4341
