CCSDS_OMM_VERS = 2.0
CREATION_DATE  = 
ORIGINATOR     = 

OBJECT_NAME    = STARLINK-37017
OBJECT_ID      = 2026-044H
CENTER_NAME    = EARTH
REF_FRAME      = TEME
TIME_SYSTEM    = UTC
MEAN_ELEMENT_THEORY = SGP/SGP4

EPOCH          = 2026-03-27T16:28:24.197088
MEAN_MOTION    = 15.75192879
ECCENTRICITY   = .0001829
INCLINATION    = 97.2841
RA_OF_ASC_NODE = 47.7220
ARG_OF_PERICENTER = 112.1149
MEAN_ANOMALY   = 248.0310

EPHEMERIS_TYPE = 0
CLASSIFICATION_TYPE = U
NORAD_CAT_ID   = 68108
ELEMENT_SET_NO = 999
REV_AT_EPOCH   = 431
BSTAR          = .77202E-3
MEAN_MOTION_DOT = .116624E-2
MEAN_MOTION_DDOT = 0

CCSDS_OMM_VERS = 2.0
CREATION_DATE  = 
ORIGINATOR     = 

OBJECT_NAME    = STARLINK-36833
OBJECT_ID      = 2026-044J
CENTER_NAME    = EARTH
REF_FRAME      = TEME
TIME_SYSTEM    = UTC
MEAN_ELEMENT_THEORY = SGP/SGP4

EPOCH          = 2026-03-27T21:00:48.191328
MEAN_MOTION    = 15.75229372
ECCENTRICITY   = .0001929
INCLINATION    = 97.2844
RA_OF_ASC_NODE = 47.9232
ARG_OF_PERICENTER = 105.2845
MEAN_ANOMALY   = 254.8633

EPHEMERIS_TYPE = 0
CLASSIFICATION_TYPE = U
NORAD_CAT_ID   = 68109
ELEMENT_SET_NO = 999
REV_AT_EPOCH   = 434
BSTAR          = .78056E-3
MEAN_MOTION_DOT = .118124E-2
MEAN_MOTION_DDOT = 0

CCSDS_OMM_VERS = 2.0
CREATION_DATE  = 
ORIGINATOR     = 

OBJECT_NAME    = STARLINK-36830
OBJECT_ID      = 2026-044K
CENTER_NAME    = EARTH
REF_FRAME      = TEME
TIME_SYSTEM    = UTC
MEAN_ELEMENT_THEORY = SGP/SGP4

EPOCH          = 2026-03-27T19:30:20.467296
MEAN_MOTION    = 15.75219121
ECCENTRICITY   = .0001583
INCLINATION    = 97.2848
RA_OF_ASC_NODE = 47.8561
ARG_OF_PERICENTER = 89.4089
MEAN_ANOMALY   = 270.7357

EPHEMERIS_TYPE = 0
CLASSIFICATION_TYPE = U
NORAD_CAT_ID   = 68110
ELEMENT_SET_NO = 999
REV_AT_EPOCH   = 433
BSTAR          = .71147E-3
MEAN_MOTION_DOT = .107471E-2
MEAN_MOTION_DDOT = 0

CCSDS_OMM_VERS = 2.0
CREATION_DATE  = 
ORIGINATOR     = 

OBJECT_NAME    = STARLINK-36791
OBJECT_ID      = 2026-044L
CENTER_NAME    = EARTH
REF_FRAME      = TEME
TIME_SYSTEM    = UTC
MEAN_ELEMENT_THEORY = SGP/SGP4

EPOCH          = 2026-03-27T20:58:46.218720
MEAN_MOTION    = 15.75240296
ECCENTRICITY   = .0001749
INCLINATION    = 97.2843
RA_OF_ASC_NODE = 47.9261
ARG_OF_PERICENTER = 94.4238
MEAN_ANOMALY   = 265.7227

EPHEMERIS_TYPE = 0
CLASSIFICATION_TYPE = U
NORAD_CAT_ID   = 68111
ELEMENT_SET_NO = 999
REV_AT_EPOCH   = 434
BSTAR          = .97777E-3
MEAN_MOTION_DOT = .148601E-2
MEAN_MOTION_DDOT = 0

CCSDS_OMM_VERS = 2.0
CREATION_DATE  = 
ORIGINATOR     = 

OBJECT_NAME    = STARLINK-36893
OBJECT_ID      = 2026-044M
CENTER_NAME    = EARTH
REF_FRAME      = TEME
TIME_SYSTEM    = UTC
MEAN_ELEMENT_THEORY = SGP/SGP4

EPOCH          = 2026-03-27T20:57:14.994144
MEAN_MOTION    = 15.75213216
ECCENTRICITY   = .0001381
INCLINATION    = 97.2843
RA_OF_ASC_NODE = 47.9262
ARG_OF_PERICENTER = 98.5523
MEAN_ANOMALY   = 261.5898

EPHEMERIS_TYPE = 0
CLASSIFICATION_TYPE = U
NORAD_CAT_ID   = 68112
ELEMENT_SET_NO = 999
REV_AT_EPOCH   = 434
BSTAR          = .77443E-3
MEAN_MOTION_DOT = .117095E-2
MEAN_MOTION_DDOT = 0

CCSDS_OMM_VERS = 2.0
CREATION_DATE  = 
ORIGINATOR     = 

OBJECT_NAME    = STARLINK-36937
OBJECT_ID      = 2026-044N
CENTER_NAME    = EARTH
REF_FRAME      = TEME
TIME_SYSTEM    = UTC
MEAN_ELEMENT_THEORY = SGP/SGP4

EPOCH          = 2026-03-27T20:55:43.452480
MEAN_MOTION    = 15.75231544
ECCENTRICITY   = .0001385
INCLINATION    = 97.2844
RA_OF_ASC_NODE = 47.9280
ARG_OF_PERICENTER = 77.2864
MEAN_ANOMALY   = 282.8556

EPHEMERIS_TYPE = 0
CLASSIFICATION_TYPE = U
NORAD_CAT_ID   = 68113
ELEMENT_SET_NO = 999
REV_AT_EPOCH   = 434
BSTAR          = .99997E-3
MEAN_MOTION_DOT = .151979E-2
MEAN_MOTION_DDOT = 0

CCSDS_OMM_VERS = 2.0
CREATION_DATE  = 
ORIGINATOR     = 

OBJECT_NAME    = STARLINK-36229
OBJECT_ID      = 2026-044P
CENTER_NAME    = EARTH
REF_FRAME      = TEME
TIME_SYSTEM    = UTC
MEAN_ELEMENT_THEORY = SGP/SGP4

EPOCH          = 2026-03-27T20:56:13.786656
MEAN_MOTION    = 15.75241714
ECCENTRICITY   = .000201
INCLINATION    = 97.2844
RA_OF_ASC_NODE = 47.9263
ARG_OF_PERICENTER = 110.3527
MEAN_ANOMALY   = 249.7954

EPHEMERIS_TYPE = 0
CLASSIFICATION_TYPE = U
NORAD_CAT_ID   = 68114
ELEMENT_SET_NO = 999
REV_AT_EPOCH   = 434
BSTAR          = .1001E-2
MEAN_MOTION_DOT = .152208E-2
MEAN_MOTION_DDOT = 0

CCSDS_OMM_VERS = 2.0
CREATION_DATE  = 
ORIGINATOR     = 

OBJECT_NAME    = STARLINK-36392
OBJECT_ID      = 2026-044Q
CENTER_NAME    = EARTH
REF_FRAME      = TEME
TIME_SYSTEM    = UTC
MEAN_ELEMENT_THEORY = SGP/SGP4

EPOCH          = 2026-03-27T20:54:12.066336
MEAN_MOTION    = 15.75230704
ECCENTRICITY   = .0001135
INCLINATION    = 97.2841
RA_OF_ASC_NODE = 47.9291
ARG_OF_PERICENTER = 80.5405
MEAN_ANOMALY   = 279.5988

EPHEMERIS_TYPE = 0
CLASSIFICATION_TYPE = U
NORAD_CAT_ID   = 68115
ELEMENT_SET_NO = 999
REV_AT_EPOCH   = 434
BSTAR          = .10276E-2
MEAN_MOTION_DOT = .156251E-2
MEAN_MOTION_DDOT = 0

CCSDS_OMM_VERS = 2.0
CREATION_DATE  = 
ORIGINATOR     = 

OBJECT_NAME    = STARLINK-36805
OBJECT_ID      = 2026-044R
CENTER_NAME    = EARTH
REF_FRAME      = TEME
TIME_SYSTEM    = UTC
MEAN_ELEMENT_THEORY = SGP/SGP4

EPOCH          = 2026-03-27T20:53:41.376192
MEAN_MOTION    = 15.75220080
ECCENTRICITY   = .0001009
INCLINATION    = 97.2843
RA_OF_ASC_NODE = 47.9294
ARG_OF_PERICENTER = 102.8283
MEAN_ANOMALY   = 257.3095

EPHEMERIS_TYPE = 0
CLASSIFICATION_TYPE = U
NORAD_CAT_ID   = 68116
ELEMENT_SET_NO = 999
REV_AT_EPOCH   = 434
BSTAR          = .72026E-3
MEAN_MOTION_DOT = .108821E-2
MEAN_MOTION_DDOT = 0

CCSDS_OMM_VERS = 2.0
CREATION_DATE  = 
ORIGINATOR     = 

OBJECT_NAME    = STARLINK-36844
OBJECT_ID      = 2026-044S
CENTER_NAME    = EARTH
REF_FRAME      = TEME
TIME_SYSTEM    = UTC
MEAN_ELEMENT_THEORY = SGP/SGP4

EPOCH          = 2026-03-27T20:51:39.500352
MEAN_MOTION    = 15.75224763
ECCENTRICITY   = .0001215
INCLINATION    = 97.2842
RA_OF_ASC_NODE = 47.9314
ARG_OF_PERICENTER = 81.4053
MEAN_ANOMALY   = 278.7350

EPHEMERIS_TYPE = 0
CLASSIFICATION_TYPE = U
NORAD_CAT_ID   = 68117
ELEMENT_SET_NO = 999
REV_AT_EPOCH   = 434
BSTAR          = .85557E-3
MEAN_MOTION_DOT = .129633E-2
MEAN_MOTION_DDOT = 0

CCSDS_OMM_VERS = 2.0
CREATION_DATE  = 
ORIGINATOR     = 

OBJECT_NAME    = STARLINK-36789
OBJECT_ID      = 2026-044T
CENTER_NAME    = EARTH
REF_FRAME      = TEME
TIME_SYSTEM    = UTC
MEAN_ELEMENT_THEORY = SGP/SGP4

EPOCH          = 2026-03-27T20:51:08.736768
MEAN_MOTION    = 15.75280704
ECCENTRICITY   = .000194
INCLINATION    = 97.2841
RA_OF_ASC_NODE = 47.9317
ARG_OF_PERICENTER = 103.7200
MEAN_ANOMALY   = 256.4281

EPHEMERIS_TYPE = 0
CLASSIFICATION_TYPE = U
NORAD_CAT_ID   = 68118
ELEMENT_SET_NO = 999
REV_AT_EPOCH   = 434
BSTAR          = .13986E-2
MEAN_MOTION_DOT = .214648E-2
MEAN_MOTION_DDOT = 0

CCSDS_OMM_VERS = 2.0
CREATION_DATE  = 
ORIGINATOR     = 

OBJECT_NAME    = STARLINK-36850
OBJECT_ID      = 2026-044U
CENTER_NAME    = EARTH
REF_FRAME      = TEME
TIME_SYSTEM    = UTC
MEAN_ELEMENT_THEORY = SGP/SGP4

EPOCH          = 2026-03-27T20:50:38.591808
MEAN_MOTION    = 15.75210625
ECCENTRICITY   = .0001289
INCLINATION    = 97.2843
RA_OF_ASC_NODE = 47.9323
ARG_OF_PERICENTER = 75.8138
MEAN_ANOMALY   = 284.3270

EPHEMERIS_TYPE = 0
CLASSIFICATION_TYPE = U
NORAD_CAT_ID   = 68119
ELEMENT_SET_NO = 999
REV_AT_EPOCH   = 434
BSTAR          = .67696E-3
MEAN_MOTION_DOT = .102149E-2
MEAN_MOTION_DDOT = 0

